$$SOE
2460728.500000000, A.D. 2025-Feb-22 00:00:00.0000, -3.467391699677979E+08, -2.433962778068403E+08, 8.378749990236074E+07,
2460735.500000000, A.D. 2025-Mar-01 00:00:00.0000, -3.405105093333464E+08, -2.522403656600031E+08, 8.407272985194102E+07,
2460742.500000000, A.D. 2025-Mar-08 00:00:00.0000, -3.340768412331700E+08, -2.609326568524929E+08, 8.430734386785915E+07,
2460749.500000000, A.D. 2025-Mar-15 00:00:00.0000, -3.274422932729799E+08, -2.694681183018416E+08, 8.449126558423513E+07,
2460756.500000000, A.D. 2025-Mar-22 00:00:00.0000, -3.206111189957854E+08, -2.778418340230869E+08, 8.462445332323538E+07,
2460763.500000000, A.D. 2025-Mar-29 00:00:00.0000, -3.135876945889577E+08, -2.860490104155006E+08, 8.470689988929541E+07,
2460770.500000000, A.D. 2025-Apr-05 00:00:00.0000, -3.063765138015167E+08, -2.940849805013332E+08, 8.473863224565956E+07,
2460777.500000000, A.D. 2025-Apr-12 00:00:00.0000, -2.989821830065813E+08, -3.019452070071371E+08, 8.471971125888516E+07,
2460784.500000000, A.D. 2025-Apr-19 00:00:00.0000, -2.914094166037154E+08, -3.096252851633542E+08, 8.465023145617543E+07,
2460791.500000000, A.D. 2025-Apr-26 00:00:00.0000, -2.836630324961040E+08, -3.171209454205696E+08, 8.453032075343235E+07,
2460798.500000000, A.D. 2025-May-03 00:00:00.0000, -2.757479475351552E+08, -3.244280560602503E+08, 8.436014014479002E+07,
2460805.500000000, A.D. 2025-May-10 00:00:00.0000, -2.676691729105092E+08, -3.315426256901075E+08, 8.413988335193767E+07,
2460812.500000000, A.D. 2025-May-17 00:00:00.0000, -2.594318094561985E+08, -3.384608056654326E+08, 8.386977642749849E+07,
2460819.500000000, A.D. 2025-May-24 00:00:00.0000, -2.510410427076300E+08, -3.451788924919291E+08, 8.355007729368004E+07,
2460826.500000000, A.D. 2025-May-31 00:00:00.0000, -2.425021373008668E+08, -3.516933298999929E+08, 8.318107520516166E+07,
2460833.500000000, A.D. 2025-Jun-07 00:00:00.0000, -2.338204311241739E+08, -3.580007093859334E+08, 8.276309027314702E+07,
2460840.500000000, A.D. 2025-Jun-14 00:00:00.0000, -2.250013315943191E+08, -3.640977698869691E+08, 8.229647321426184E+07,
2460847.500000000, A.D. 2025-Jun-21 00:00:00.0000, -2.160503128482447E+08, -3.699813998626955E+08, 8.178160494674751E+07,
2460854.500000000, A.D. 2025-Jun-28 00:00:00.0000, -2.069729107302480E+08, -3.756486400211121E+08, 8.121889589322209E+07,
2460861.500000000, A.D. 2025-Jul-05 00:00:00.0000, -1.977747170999950E+08, -3.810966845347379E+08, 8.060878530724047E+07,
2460868.500000000, A.D. 2025-Jul-12 00:00:00.0000, -1.884613746600852E+08, -3.863228815532920E+08, 7.995174066842985E+07,
2460875.500000000, A.D. 2025-Jul-19 00:00:00.0000, -1.790385721204086E+08, -3.913247335892963E+08, 7.924825708284844E+07,
2460882.500000000, A.D. 2025-Jul-26 00:00:00.0000, -1.695120394954993E+08, -3.960998978352287E+08, 7.849885666569269E+07,
2460889.500000000, A.D. 2025-Aug-02 00:00:00.0000, -1.598875434754021E+08, -4.006461863936599E+08, 7.770408790339735E+07,
2460896.500000000, A.D. 2025-Aug-09 00:00:00.0000, -1.501708828527169E+08, -4.049615664387130E+08, 7.686452499338698E+07,
2460903.500000000, A.D. 2025-Aug-16 00:00:00.0000, -1.403678839350445E+08, -4.090441603758591E+08, 7.598076715096603E+07,
2460910.500000000, A.D. 2025-Aug-23 00:00:00.0000, -1.304843956561473E+08, -4.128922459873264E+08, 7.505343785952015E+07,
2460917.500000000, A.D. 2025-Aug-30 00:00:00.0000, -1.205262840625248E+08, -4.165042558528702E+08, 7.408318409379505E+07,
2460924.500000000, A.D. 2025-Sep-06 00:00:00.0000, -1.104994275987190E+08, -4.198787750491301E+08, 7.307067572946225E+07,
2460931.500000000, A.D. 2025-Sep-13 00:00:00.0000, -1.004097148663025E+08, -4.230145396137381E+08, 7.201660509042740E+07,
2460938.500000000, A.D. 2025-Sep-20 00:00:00.0000, -9.026304158690831E+07, -4.259104374233523E+08, 7.092168620068966E+07,
2460945.500000000, A.D. 2025-Sep-27 00:00:00.0000, -8.006530571495619E+07, -4.285655083800195E+08, 6.978665389983372E+07,
2460952.500000000, A.D. 2025-Oct-04 00:00:00.0000, -6.982240272120045E+07, -4.309789433719203E+08, 6.861226305289811E+07,
2460959.500000000, A.D. 2025-Oct-11 00:00:00.0000, -5.954022142469496E+07, -4.331500829560600E+08, 6.739928781315069E+07,
2460966.500000000, A.D. 2025-Oct-18 00:00:00.0000, -4.922464009292550E+07, -4.350784160416363E+08, 6.614852089039005E+07,
2460973.500000000, A.D. 2025-Oct-25 00:00:00.0000, -3.888152267338579E+07, -4.367635785673252E+08, 6.486077281372878E+07,
2460980.500000000, A.D. 2025-Nov-01 00:00:00.0000, -2.851671511933125E+07, -4.382053521615645E+08, 6.353687118733284E+07,
2460987.500000000, A.D. 2025-Nov-08 00:00:00.0000, -1.813604177703330E+07, -4.394036628224313E+08, 6.217765993435855E+07,
2460994.500000000, A.D. 2025-Nov-15 00:00:00.0000, -7.745301688617351E+06, -4.403585796812502E+08, 6.078399851183903E+07,
2461001.500000000, A.D. 2025-Nov-22 00:00:00.0000, 2.649735590187333E+06, -4.410703136354354E+08, 5.935676107863066E+07,
2461008.500000000, A.D. 2025-Nov-29 00:00:00.0000, 1.304333450220322E+07, -4.415392147209145E+08, 5.789683572413543E+07,
2461015.500000000, A.D. 2025-Dec-06 00:00:00.0000, 2.342979605167700E+07, -4.417657683646854E+08, 5.640512395619082E+07,
2461022.500000000, A.D. 2025-Dec-13 00:00:00.0000, 3.380345885058026E+07, -4.417505938918157E+08, 5.488254013331810E+07,
2461029.500000000, A.D. 2025-Dec-20 00:00:00.0000, 4.415870214102482E+07, -4.414944442688466E+08, 5.333001060526124E+07,
2461036.500000000, A.D. 2025-Dec-27 00:00:00.0000, 5.448994971873549E+07, -4.409982044976602E+08, 5.174847287296598E+07,
2461043.500000000, A.D. 2026-Jan-03 00:00:00.0000, 6.479167329682240E+07, -4.402628892790036E+08, 5.013887485202679E+07,
2461050.500000000, A.D. 2026-Jan-10 00:00:00.0000, 7.505839541894244E+07, -4.392896406266947E+08, 4.850217417419739E+07,
2461057.500000000, A.D. 2026-Jan-17 00:00:00.0000, 8.528469215510681E+07, -4.380797255258915E+08, 4.683933749827795E+07,
2461064.500000000, A.D. 2026-Jan-24 00:00:00.0000, 9.546519565994328E+07, -4.366345336153995E+08, 4.515133982549955E+07,
2461071.500000000, A.D. 2026-Jan-31 00:00:00.0000, 1.055945966191930E+08, -4.349555749054524E+08, 4.343916381746362E+07,
2461078.500000000, A.D. 2026-Feb-07 00:00:00.0000, 1.156676466479449E+08, -4.330444775935519E+08, 4.170379910744837E+07,
2461085.500000000, A.D. 2026-Feb-14 00:00:00.0000, 1.256791608948108E+08, -4.309029859993465E+08, 3.994624158182505E+07,
2461092.500000000, A.D. 2026-Feb-21 00:00:00.0000, 1.356240212399320E+08, -4.285329580467744E+08, 3.816749264418049E+07,
2461099.500000000, A.D. 2026-Feb-28 00:00:00.0000, 1.454971790018657E+08, -4.259363611441324E+08, 3.636855865646425E+07,
2461106.500000000, A.D. 2026-Mar-07 00:00:00.0000, 1.552936550948207E+08, -4.231152684144866E+08, 3.455045058666252E+07,
2461113.500000000, A.D. 2026-Mar-14 00:00:00.0000, 1.650085404132165E+08, -4.200718576107850E+08, 3.271418341764985E+07,
2461120.500000000, A.D. 2026-Mar-21 00:00:00.0000, 1.746369982288405E+08, -4.168084098207023E+08, 3.086077539076769E+07,
2461127.500000000, A.D. 2026-Mar-28 00:00:00.0000, 1.841742665933423E+08, -4.133273069364314E+08, 2.899124735294296E+07,
2461134.500000000, A.D. 2026-Apr-04 00:00:00.0000, 1.936156601441536E+08, -4.096310288584982E+08, 2.710662218417279E+07,
2461141.500000000, A.D. 2026-Apr-11 00:00:00.0000, 2.029565715896099E+08, -4.057221507966250E+08, 2.520792425115366E+07,
2461148.500000000, A.D. 2026-Apr-18 00:00:00.0000, 2.121924730345087E+08, -4.016033406772460E+08, 2.329617887218313E+07,
2461155.500000000, A.D. 2026-Apr-25 00:00:00.0000, 2.213189171939095E+08, -3.972773566455601E+08, 2.137241179054445E+07,
2461162.500000000, A.D. 2026-May-02 00:00:00.0000, 2.303315385280354E+08, -3.927470446937944E+08, 1.943764865124428E+07,
2461169.500000000, A.D. 2026-May-09 00:00:00.0000, 2.392260544256373E+08, -3.880153364837039E+08, 1.749291446435994E+07,
2461176.500000000, A.D. 2026-May-16 00:00:00.0000, 2.479982668171540E+08, -3.830852472272914E+08, 1.553923303185309E+07,
2461183.500000000, A.D. 2026-May-23 00:00:00.0000, 2.566440642727499E+08, -3.779598726065904E+08, 1.357762641692767E+07,
2461190.500000000, A.D. 2026-May-30 00:00:00.0000, 2.651594225089743E+08, -3.726423844160583E+08, 1.160911467274813E+07,
2461197.500000000, A.D. 2026-Jun-06 00:00:00.0000, 2.735404029880517E+08, -3.671360282024695E+08, 9.634715591771349E+06,
2461204.500000000, A.D. 2026-Jun-13 00:00:00.0000, 2.817831532779478E+08, -3.614441227037541E+08, 7.655444155292407E+06,
2461211.500000000, A.D. 2026-Jun-20 00:00:00.0000, 2.898839086753870E+08, -3.555700581622429E+08, 5.672311968023345E+06,
2461218.500000000, A.D. 2026-Jun-27 00:00:00.0000, 2.978389933963648E+08, -3.495172938543528E+08, 3.686326805413678E+06,
2461225.500000000, A.D. 2026-Jul-04 00:00:00.0000, 3.056448213365350E+08, -3.432893556134028E+08, 1.698492209987238E+06,
2461232.500000000, A.D. 2026-Jul-11 00:00:00.0000, 3.132978966577762E+08, -3.368898334789935E+08, -2.901928978396952E+05,
2461239.500000000, A.D. 2026-Jul-18 00:00:00.0000, 3.207948142958850E+08, -3.303223794486393E+08, -2.278734601348922E+06,
2461246.500000000, A.D. 2026-Jul-25 00:00:00.0000, 3.281322604157037E+08, -3.235907053301477E+08, -4.266144364034757E+06,
2461253.500000000, A.D. 2026-Aug-01 00:00:00.0000, 3.353070128632289E+08, -3.166985807434716E+08, -6.251439409891352E+06,
2461260.500000000, A.D. 2026-Aug-08 00:00:00.0000, 3.423159418311912E+08, -3.096498313077126E+08, -8.233643130544245E+06,
2461267.500000000, A.D. 2026-Aug-15 00:00:00.0000, 3.491560111557840E+08, -3.024483365627006E+08, -1.021178552073918E+07,
2461274.500000000, A.D. 2026-Aug-22 00:00:00.0000, 3.558242794868104E+08, -2.950980264049419E+08, -1.218490347269164E+07,
2461281.500000000, A.D. 2026-Aug-29 00:00:00.0000, 3.623178990442286E+08, -2.876028774122931E+08, -1.415204083172992E+07,
2461288.500000000, A.D. 2026-Sep-05 00:00:00.0000, 3.686341140951166E+08, -2.799669119254258E+08, -1.611224864364700E+07,
2461295.500000000, A.D. 2026-Sep-12 00:00:00.0000, 3.747702616068826E+08, -2.721941973893183E+08, -1.806458561523674E+07,
$$EOE